{"type": "FeatureCollection", "features": [ {"type": "Feature", "properties": {"norad_id": 31512, "name": "FENGYUN 1C DEB", "group": "fengyun-1c-debris", "lat": 61.999585500993845, "lon": -120.54517166570203, "alt_km": 663.0381600665069, "timestamp": "2025-12-26T12:57:39.555572+00:00", "meta": {"OBJECT_NAME": "FENGYUN 1C DEB", "OBJECT_ID": "1999-025BXB", "EPOCH": "2025-12-25T12:17:48.253056", "MEAN_MOTION": 14.43855842, "ECCENTRICITY": 0.0144773, "INCLINATION": 98.8041, "RA_OF_ASC_NODE": 255.338, "ARG_OF_PERICENTER": 108.9791, "MEAN_ANOMALY": 16.818, "EPHEMERIS_TYPE": 0, "CLASSIFICATION_TYPE": "U", "NORAD_CAT_ID": 31512, "ELEMENT_SET_NO": 999, "REV_AT_EPOCH": 65686, "BSTAR": 0.00039777, "MEAN_MOTION_DOT": 1.488e-05, "MEAN_MOTION_DDOT": 0}, "tle": {"line1": "1 31512U 99025BXB 25359.51236404  .00001488  00000+0  39777-3 0  9992", "line2": "2 31512  98.8041 255.3380 0144773 108.9791  16.8180 14.43855842656860"}}, "geometry": {"type": "Point", "coordinates": [-120.54517166570203, 61.999585500993845]}}, {"type": "Feature", "properties": {"norad_id": 31513, "name": "FENGYUN 1C DEB", "group": "fengyun-1c-debris", "lat": 75.35085395728409, "lon": 60.92595591822245, "alt_km": 756.9295679944307, "timestamp": "2025-12-26T12:57:39.555582+00:00", "meta": {"OBJECT_NAME": "FENGYUN 1C DEB", "OBJECT_ID": "1999-025BXC", "EPOCH": "2025-12-24T05:17:10.594464", "MEAN_MOTION": 14.32683655, "ECCENTRICITY": 0.00263257, "INCLINATION": 98.8637, "RA_OF_ASC_NODE": 95.208, "ARG_OF_PERICENTER": 94.8916, "MEAN_ANOMALY": 265.5274, "EPHEMERIS_TYPE": 0, "CLASSIFICATION_TYPE": "U", "NORAD_CAT_ID": 31513, "ELEMENT_SET_NO": 999, "REV_AT_EPOCH": 73033, "BSTAR": 0.0019178492, "MEAN_MOTION_DOT": 5.194e-05, "MEAN_MOTION_DDOT": 0}, "tle": {"line1": "1 31513U 99025BXC 25358.22026151  .00005194  00000+0  19178-2 0  9996", "line2": "2 31513  98.8637  95.2080 0026325  94.8916 265.5274 14.32683655730335"}}, "geometry": {"type": "Point", "coordinates": [60.92595591822245, 75.35085395728409]}}, {"type": "Feature", "properties": {"norad_id": 31514, "name": "FENGYUN 1C DEB", "group": "fengyun-1c-debris", "lat": 40.91776586788352, "lon": 90.03965506287187, "alt_km": 800.4006109287602, "timestamp": "2025-12-26T12:57:39.555592+00:00", "meta": {"OBJECT_NAME": "FENGYUN 1C DEB", "OBJECT_ID": "1999-025BXD", "EPOCH": "2025-12-24T16:22:57.611136", "MEAN_MOTION": 14.21063174, "ECCENTRICITY": 0.00540571, "INCLINATION": 99.247, "RA_OF_ASC_NODE": 259.9789, "ARG_OF_PERICENTER": 80.8841, "MEAN_ANOMALY": 279.8445, "EPHEMERIS_TYPE": 0, "CLASSIFICATION_TYPE": "U", "NORAD_CAT_ID": 31514, "ELEMENT_SET_NO": 999, "REV_AT_EPOCH": 69494, "BSTAR": 0.0016750567, "MEAN_MOTION_DOT": 3.643e-05, "MEAN_MOTION_DDOT": 0}, "tle": {"line1": "1 31514U 99025BXD 25358.68261124  .00003643  00000+0  16751-2 0  9999", "line2": "2 31514  99.2470 259.9789 0054057  80.8841 279.8445 14.21063174694946"}}, "geometry": {"type": "Point", "coordinates": [90.03965506287187, 40.91776586788352]}}, {"type": "Feature", "properties": {"norad_id": 31516, "name": "FENGYUN 1C DEB", "group": "fengyun-1c-debris", "lat": -33.59196046921135, "lon": 122.47153651707889, "alt_km": 877.2985843571287, "timestamp": "2025-12-26T12:57:39.555602+00:00", "meta": {"OBJECT_NAME": "FENGYUN 1C DEB", "OBJECT_ID": "1999-025BXF", "EPOCH": "2025-12-26T06:31:50.881152", "MEAN_MOTION": 14.2544408, "ECCENTRICITY": 0.01489343, "INCLINATION": 98.8325, "RA_OF_ASC_NODE": 116.2739, "ARG_OF_PERICENTER": 199.3049, "MEAN_ANOMALY": 191.2795, "EPHEMERIS_TYPE": 0, "CLASSIFICATION_TYPE": "U", "NORAD_CAT_ID": 31516, "ELEMENT_SET_NO": 999, "REV_AT_EPOCH": 96685, "BSTAR": 0.00052828878, "MEAN_MOTION_DOT": 1.354e-05, "MEAN_MOTION_DDOT": 0}, "tle": {"line1": "1 31516U 99025BXF 25360.27211668  .00001354  00000+0  52829-3 0  9991", "line2": "2 31516  98.8325 116.2739 0148934 199.3049 191.2795 14.25444080966856"}}, "geometry": {"type": "Point", "coordinates": [122.47153651707889, -33.59196046921135]}}, {"type": "Feature", "properties": {"norad_id": 31519, "name": "FENGYUN 1C DEB", "group": "fengyun-1c-debris", "lat": -15.69117308181626, "lon": -0.8325425567037466, "alt_km": 848.0867750092666, "timestamp": "2025-12-26T12:57:39.555612+00:00", "meta": {"OBJECT_NAME": "FENGYUN 1C DEB", "OBJECT_ID": "1999-025BXJ", "EPOCH": "2025-12-23T17:33:15.370560", "MEAN_MOTION": 14.23419226, "ECCENTRICITY": 0.0052121, "INCLINATION": 98.5739, "RA_OF_ASC_NODE": 354.002, "ARG_OF_PERICENTER": 210.1649, "MEAN_ANOMALY": 149.6526, "EPHEMERIS_TYPE": 0, "CLASSIFICATION_TYPE": "U", "NORAD_CAT_ID": 31519, "ELEMENT_SET_NO": 999, "REV_AT_EPOCH": 64921, "BSTAR": 0.00036766676, "MEAN_MOTION_DOT": 8.03e-06, "MEAN_MOTION_DDOT": 0}, "tle": {"line1": "1 31519U 99025BXJ 25357.73142790  .00000803  00000+0  36767-3 0  9991", "line2": "2 31519  98.5739 354.0020 0052121 210.1649 149.6526 14.23419226649219"}}, "geometry": {"type": "Point", "coordinates": [-0.8325425567037466, -15.69117308181626]}}, {"type": "Feature", "properties": {"norad_id": 31522, "name": "FENGYUN 1C DEB", "group": "fengyun-1c-debris", "lat": 3.00121213072128, "lon": -161.366297993211, "alt_km": 851.7934880496368, "timestamp": "2025-12-26T12:57:39.555622+00:00", "meta": {"OBJECT_NAME": "FENGYUN 1C DEB", "OBJECT_ID": "1999-025BXM", "EPOCH": "2025-12-26T06:59:30.087744", "MEAN_MOTION": 14.0401721, "ECCENTRICITY": 0.00436354, "INCLINATION": 98.7064, "RA_OF_ASC_NODE": 17.9351, "ARG_OF_PERICENTER": 162.6078, "MEAN_ANOMALY": 197.6596, "EPHEMERIS_TYPE": 0, "CLASSIFICATION_TYPE": "U", "NORAD_CAT_ID": 31522, "ELEMENT_SET_NO": 999, "REV_AT_EPOCH": 95186, "BSTAR": 0.00043578642, "MEAN_MOTION_DOT": 6.53e-06, "MEAN_MOTION_DDOT": 0}, "tle": {"line1": "1 31522U 99025BXM 25360.29132046  .00000653  00000+0  43579-3 0  9995", "line2": "2 31522  98.7064  17.9351 0043635 162.6078 197.6596 14.04017210951868"}}, "geometry": {"type": "Point", "coordinates": [-161.366297993211, 3.00121213072128]}}, {"type": "Feature", "properties": {"norad_id": 31523, "name": "FENGYUN 1C DEB", "group": "fengyun-1c-debris", "lat": 28.720183601273902, "lon": -127.35408714280025, "alt_km": 839.5530819479773, "timestamp": "2025-12-26T12:57:39.555632+00:00", "meta": {"OBJECT_NAME": "FENGYUN 1C DEB", "OBJECT_ID": "1999-025BXN", "EPOCH": "2025-12-18T09:00:27.931392", "MEAN_MOTION": 14.13860711, "ECCENTRICITY": 0.00394646, "INCLINATION": 98.7566, "RA_OF_ASC_NODE": 39.8049, "ARG_OF_PERICENTER": 94.418, "MEAN_ANOMALY": 281.6008, "EPHEMERIS_TYPE": 0, "CLASSIFICATION_TYPE": "U", "NORAD_CAT_ID": 31523, "ELEMENT_SET_NO": 999, "REV_AT_EPOCH": 96087, "BSTAR": 2.5829225e-05, "MEAN_MOTION_DOT": 6e-08, "MEAN_MOTION_DDOT": 0}, "tle": {"line1": "1 31523U 99025BXN 25352.37532328  .00000006  00000+0  25829-4 0  9994", "line2": "2 31523  98.7566  39.8049 0039464  94.4180 281.6008 14.13860711960879"}}, "geometry": {"type": "Point", "coordinates": [-127.35408714280025, 28.720183601273902]}}, {"type": "Feature", "properties": {"norad_id": 31527, "name": "FENGYUN 1C DEB", "group": "fengyun-1c-debris", "lat": 56.42487307806873, "lon": 150.48395275704843, "alt_km": 1458.9017709488671, "timestamp": "2025-12-26T12:57:39.555642+00:00", "meta": {"OBJECT_NAME": "FENGYUN 1C DEB", "OBJECT_ID": "1999-025BXS", "EPOCH": "2025-12-22T10:40:48.323136", "MEAN_MOTION": 13.23411425, "ECCENTRICITY": 0.04495211, "INCLINATION": 98.8916, "RA_OF_ASC_NODE": 160.6201, "ARG_OF_PERICENTER": 276.6803, "MEAN_ANOMALY": 78.3367, "EPHEMERIS_TYPE": 0, "CLASSIFICATION_TYPE": "U", "NORAD_CAT_ID": 31527, "ELEMENT_SET_NO": 999, "REV_AT_EPOCH": 90318, "BSTAR": 0.00065377529, "MEAN_MOTION_DOT": 4.35e-06, "MEAN_MOTION_DDOT": 0}, "tle": {"line1": "1 31527U 99025BXS 25356.44500374  .00000435  00000+0  65378-3 0  9994", "line2": "2 31527  98.8916 160.6201 0449521 276.6803  78.3367 13.23411425903185"}}, "geometry": {"type": "Point", "coordinates": [150.48395275704843, 56.42487307806873]}}, {"type": "Feature", "properties": {"norad_id": 31531, "name": "FENGYUN 1C DEB", "group": "fengyun-1c-debris", "lat": 48.96821538437792, "lon": -125.3027971328157, "alt_km": 785.3998128253743, "timestamp": "2025-12-26T12:57:39.555652+00:00", "meta": {"OBJECT_NAME": "FENGYUN 1C DEB", "OBJECT_ID": "1999-025BXW", "EPOCH": "2025-12-23T20:46:27.388128", "MEAN_MOTION": 14.35719819, "ECCENTRICITY": 0.0244191, "INCLINATION": 98.3815, "RA_OF_ASC_NODE": 42.3413, "ARG_OF_PERICENTER": 235.2836, "MEAN_ANOMALY": 122.5132, "EPHEMERIS_TYPE": 0, "CLASSIFICATION_TYPE": "U", "NORAD_CAT_ID": 31531, "ELEMENT_SET_NO": 999, "REV_AT_EPOCH": 64094, "BSTAR": 0.00093561, "MEAN_MOTION_DOT": 3.746e-05, "MEAN_MOTION_DDOT": 0}, "tle": {"line1": "1 31531U 99025BXW 25357.86559477  .00003746  00000+0  93561-3 0  9997", "line2": "2 31531  98.3815  42.3413 0244191 235.2836 122.5132 14.35719819640943"}}, "geometry": {"type": "Point", "coordinates": [-125.3027971328157, 48.96821538437792]}}, {"type": "Feature", "properties": {"norad_id": 31533, "name": "FENGYUN 1C DEB", "group": "fengyun-1c-debris", "lat": -76.14771903284314, "lon": 33.25810893482092, "alt_km": 776.8025050409142, "timestamp": "2025-12-26T12:57:39.555662+00:00", "meta": {"OBJECT_NAME": "FENGYUN 1C DEB", "OBJECT_ID": "1999-025BXY", "EPOCH": "2025-12-22T11:52:08.553216", "MEAN_MOTION": 14.27646765, "ECCENTRICITY": 0.0065133, "INCLINATION": 98.9605, "RA_OF_ASC_NODE": 248.8914, "ARG_OF_PERICENTER": 321.3322, "MEAN_ANOMALY": 38.3204, "EPHEMERIS_TYPE": 0, "CLASSIFICATION_TYPE": "U", "NORAD_CAT_ID": 31533, "ELEMENT_SET_NO": 999, "REV_AT_EPOCH": 66262, "BSTAR": 0.00037216434, "MEAN_MOTION_DOT": 8.91e-06, "MEAN_MOTION_DDOT": 0}, "tle": {"line1": "1 31533U 99025BXY 25356.49454344  .00000891  00000+0  37216-3 0  9997", "line2": "2 31533  98.9605 248.8914 0065133 321.3322  38.3204 14.27646765662624"}}, "geometry": {"type": "Point", "coordinates": [33.25810893482092, -76.14771903284314]}}]}